GLOBALSTAR M067         
1 32263U 07048A   25096.81191575 -.00000039  00000+0  43247-3 0  9999
2 32263  51.9721 244.7818 0001363 157.3220 348.1728 12.40670003800622
GLOBALSTAR M070         
1 32264U 07048B   25096.94075778 -.00000055  00000+0  27248-3 0  9991
2 32264  51.9776 345.5497 0000676  62.9063 308.6822 12.62315414804679
GLOBALSTAR M066         
1 32265U 07048C   25097.08807323 -.00000068  00000+0  22154-3 0  9992
2 32265  51.9642 231.3339 0001894  97.3735  76.2172 12.35252928807466
GLOBALSTAR M068         
1 32266U 07048D   25096.94132361 -.00000023  00000+0  44814-3 0  9998
2 32266  51.9870 159.4383 0000620 354.4783 178.4439 12.62819809808554
GLOBALSTAR M079         
1 37188U 10054A   25096.97959951 -.00000078  00000+0  14200-3 0  9998
2 37188  52.0068 356.5534 0000886  93.4652 278.3404 12.62272638667468
GLOBALSTAR M074         
1 37189U 10054B   25097.11532531 -.00000082  00000+0  12379-3 0  9997
2 37189  52.0049 355.4754 0000565  85.5575  61.8850 12.62273447668156
GLOBALSTAR M076         
1 37190U 10054C   25096.88841877 -.00000086  00000+0  98769-4 0  9990
2 37190  52.0059 356.3267 0000661 104.8908 333.6616 12.62260420667774
GLOBALSTAR M077         
1 37191U 10054D   25096.86097491 -.00000071  00000+0  18407-3 0  9998
2 37191  52.0084 313.2506 0000818  95.7846 276.0723 12.62272950668146
