<?xml version="1.0" encoding="UTF-8"?>
<ndm xmlns:xsi="http://www.w3.org/2001/XMLSchema-instance" xsi:noNamespaceSchemaLocation="https://sanaregistry.org/r/ndmxml_unqualified/ndmxml-2.0.0-master-2.0.xsd">
<omm id="CCSDS_OMM_VERS" version="2.0">
<header><CREATION_DATE/><ORIGINATOR/></header><body><segment><metadata><OBJECT_NAME>GLOBALSTAR M067</OBJECT_NAME><OBJECT_ID>2007-048A</OBJECT_ID><CENTER_NAME>EARTH</CENTER_NAME><REF_FRAME>TEME</REF_FRAME><TIME_SYSTEM>UTC</TIME_SYSTEM><MEAN_ELEMENT_THEORY>SGP4</MEAN_ELEMENT_THEORY></metadata><data><meanElements><EPOCH>2025-04-06T19:29:09.520800</EPOCH><MEAN_MOTION>12.40670003</MEAN_MOTION><ECCENTRICITY>.0001363</ECCENTRICITY><INCLINATION>51.9721</INCLINATION><RA_OF_ASC_NODE>244.7818</RA_OF_ASC_NODE><ARG_OF_PERICENTER>157.3220</ARG_OF_PERICENTER><MEAN_ANOMALY>348.1728</MEAN_ANOMALY></meanElements><tleParameters><EPHEMERIS_TYPE>0</EPHEMERIS_TYPE><CLASSIFICATION_TYPE>U</CLASSIFICATION_TYPE><NORAD_CAT_ID>32263</NORAD_CAT_ID><ELEMENT_SET_NO>999</ELEMENT_SET_NO><REV_AT_EPOCH>80062</REV_AT_EPOCH><BSTAR>.43247E-3</BSTAR><MEAN_MOTION_DOT>-.39E-6</MEAN_MOTION_DOT><MEAN_MOTION_DDOT>0</MEAN_MOTION_DDOT></tleParameters></data></segment></body></omm>
<omm id="CCSDS_OMM_VERS" version="2.0">
<header><CREATION_DATE/><ORIGINATOR/></header><body><segment><metadata><OBJECT_NAME>GLOBALSTAR M070</OBJECT_NAME><OBJECT_ID>2007-048B</OBJECT_ID><CENTER_NAME>EARTH</CENTER_NAME><REF_FRAME>TEME</REF_FRAME><TIME_SYSTEM>UTC</TIME_SYSTEM><MEAN_ELEMENT_THEORY>SGP4</MEAN_ELEMENT_THEORY></metadata><data><meanElements><EPOCH>2025-04-06T22:34:41.472192</EPOCH><MEAN_MOTION>12.62315414</MEAN_MOTION><ECCENTRICITY>.0000676</ECCENTRICITY><INCLINATION>51.9776</INCLINATION><RA_OF_ASC_NODE>345.5497</RA_OF_ASC_NODE><ARG_OF_PERICENTER>62.9063</ARG_OF_PERICENTER><MEAN_ANOMALY>308.6822</MEAN_ANOMALY></meanElements><tleParameters><EPHEMERIS_TYPE>0</EPHEMERIS_TYPE><CLASSIFICATION_TYPE>U</CLASSIFICATION_TYPE><NORAD_CAT_ID>32264</NORAD_CAT_ID><ELEMENT_SET_NO>999</ELEMENT_SET_NO><REV_AT_EPOCH>80467</REV_AT_EPOCH><BSTAR>.27248E-3</BSTAR><MEAN_MOTION_DOT>-.55E-6</MEAN_MOTION_DOT><MEAN_MOTION_DDOT>0</MEAN_MOTION_DDOT></tleParameters></data></segment></body></omm>
<omm id="CCSDS_OMM_VERS" version="2.0">
<header><CREATION_DATE/><ORIGINATOR/></header><body><segment><metadata><OBJECT_NAME>GLOBALSTAR M066</OBJECT_NAME><OBJECT_ID>2007-048C</OBJECT_ID><CENTER_NAME>EARTH</CENTER_NAME><REF_FRAME>TEME</REF_FRAME><TIME_SYSTEM>UTC</TIME_SYSTEM><MEAN_ELEMENT_THEORY>SGP4</MEAN_ELEMENT_THEORY></metadata><data><meanElements><EPOCH>2025-04-07T02:06:49.527072</EPOCH><MEAN_MOTION>12.35252928</MEAN_MOTION><ECCENTRICITY>.0001894</ECCENTRICITY><INCLINATION>51.9642</INCLINATION><RA_OF_ASC_NODE>231.3339</RA_OF_ASC_NODE><ARG_OF_PERICENTER>97.3735</ARG_OF_PERICENTER><MEAN_ANOMALY>76.2172</MEAN_ANOMALY></meanElements><tleParameters><EPHEMERIS_TYPE>0</EPHEMERIS_TYPE><CLASSIFICATION_TYPE>U</CLASSIFICATION_TYPE><NORAD_CAT_ID>32265</NORAD_CAT_ID><ELEMENT_SET_NO>999</ELEMENT_SET_NO><REV_AT_EPOCH>80746</REV_AT_EPOCH><BSTAR>.22154E-3</BSTAR><MEAN_MOTION_DOT>-.68E-6</MEAN_MOTION_DOT><MEAN_MOTION_DDOT>0</MEAN_MOTION_DDOT></tleParameters></data></segment></body></omm>
<omm id="CCSDS_OMM_VERS" version="2.0">
<header><CREATION_DATE/><ORIGINATOR/></header><body><segment><metadata><OBJECT_NAME>GLOBALSTAR M068</OBJECT_NAME><OBJECT_ID>2007-048D</OBJECT_ID><CENTER_NAME>EARTH</CENTER_NAME><REF_FRAME>TEME</REF_FRAME><TIME_SYSTEM>UTC</TIME_SYSTEM><MEAN_ELEMENT_THEORY>SGP4</MEAN_ELEMENT_THEORY></metadata><data><meanElements><EPOCH>2025-04-06T22:35:30.359904</EPOCH><MEAN_MOTION>12.62819809</MEAN_MOTION><ECCENTRICITY>.000062</ECCENTRICITY><INCLINATION>51.9870</INCLINATION><RA_OF_ASC_NODE>159.4383</RA_OF_ASC_NODE><ARG_OF_PERICENTER>354.4783</ARG_OF_PERICENTER><MEAN_ANOMALY>178.4439</MEAN_ANOMALY></meanElements><tleParameters><EPHEMERIS_TYPE>0</EPHEMERIS_TYPE><CLASSIFICATION_TYPE>U</CLASSIFICATION_TYPE><NORAD_CAT_ID>32266</NORAD_CAT_ID><ELEMENT_SET_NO>999</ELEMENT_SET_NO><REV_AT_EPOCH>80855</REV_AT_EPOCH><BSTAR>.44814E-3</BSTAR><MEAN_MOTION_DOT>-.23E-6</MEAN_MOTION_DOT><MEAN_MOTION_DDOT>0</MEAN_MOTION_DDOT></tleParameters></data></segment></body></omm>
<omm id="CCSDS_OMM_VERS" version="2.0">
<header><CREATION_DATE/><ORIGINATOR/></header><body><segment><metadata><OBJECT_NAME>GLOBALSTAR M079</OBJECT_NAME><OBJECT_ID>2010-054A</OBJECT_ID><CENTER_NAME>EARTH</CENTER_NAME><REF_FRAME>TEME</REF_FRAME><TIME_SYSTEM>UTC</TIME_SYSTEM><MEAN_ELEMENT_THEORY>SGP4</MEAN_ELEMENT_THEORY></metadata><data><meanElements><EPOCH>2025-04-06T23:30:37.397664</EPOCH><MEAN_MOTION>12.62272638</MEAN_MOTION><ECCENTRICITY>.0000886</ECCENTRICITY><INCLINATION>52.0068</INCLINATION><RA_OF_ASC_NODE>356.5534</RA_OF_ASC_NODE><ARG_OF_PERICENTER>93.4652</ARG_OF_PERICENTER><MEAN_ANOMALY>278.3404</MEAN_ANOMALY></meanElements><tleParameters><EPHEMERIS_TYPE>0</EPHEMERIS_TYPE><CLASSIFICATION_TYPE>U</CLASSIFICATION_TYPE><NORAD_CAT_ID>37188</NORAD_CAT_ID><ELEMENT_SET_NO>999</ELEMENT_SET_NO><REV_AT_EPOCH>66746</REV_AT_EPOCH><BSTAR>.142E-3</BSTAR><MEAN_MOTION_DOT>-.78E-6</MEAN_MOTION_DOT><MEAN_MOTION_DDOT>0</MEAN_MOTION_DDOT></tleParameters></data></segment></body></omm>
<omm id="CCSDS_OMM_VERS" version="2.0">
<header><CREATION_DATE/><ORIGINATOR/></header><body><segment><metadata><OBJECT_NAME>GLOBALSTAR M074</OBJECT_NAME><OBJECT_ID>2010-054B</OBJECT_ID><CENTER_NAME>EARTH</CENTER_NAME><REF_FRAME>TEME</REF_FRAME><TIME_SYSTEM>UTC</TIME_SYSTEM><MEAN_ELEMENT_THEORY>SGP4</MEAN_ELEMENT_THEORY></metadata><data><meanElements><EPOCH>2025-04-07T02:46:04.106784</EPOCH><MEAN_MOTION>12.62273447</MEAN_MOTION><ECCENTRICITY>.0000565</ECCENTRICITY><INCLINATION>52.0049</INCLINATION><RA_OF_ASC_NODE>355.4754</RA_OF_ASC_NODE><ARG_OF_PERICENTER>85.5575</ARG_OF_PERICENTER><MEAN_ANOMALY>61.8850</MEAN_ANOMALY></meanElements><tleParameters><EPHEMERIS_TYPE>0</EPHEMERIS_TYPE><CLASSIFICATION_TYPE>U</CLASSIFICATION_TYPE><NORAD_CAT_ID>37189</NORAD_CAT_ID><ELEMENT_SET_NO>999</ELEMENT_SET_NO><REV_AT_EPOCH>66815</REV_AT_EPOCH><BSTAR>.12379E-3</BSTAR><MEAN_MOTION_DOT>-.82E-6</MEAN_MOTION_DOT><MEAN_MOTION_DDOT>0</MEAN_MOTION_DDOT></tleParameters></data></segment></body></omm>
<omm id="CCSDS_OMM_VERS" version="2.0">
<header><CREATION_DATE/><ORIGINATOR/></header><body><segment><metadata><OBJECT_NAME>GLOBALSTAR M076</OBJECT_NAME><OBJECT_ID>2010-054C</OBJECT_ID><CENTER_NAME>EARTH</CENTER_NAME><REF_FRAME>TEME</REF_FRAME><TIME_SYSTEM>UTC</TIME_SYSTEM><MEAN_ELEMENT_THEORY>SGP4</MEAN_ELEMENT_THEORY></metadata><data><meanElements><EPOCH>2025-04-06T21:19:19.381728</EPOCH><MEAN_MOTION>12.62260420</MEAN_MOTION><ECCENTRICITY>.0000661</ECCENTRICITY><INCLINATION>52.0059</INCLINATION><RA_OF_ASC_NODE>356.3267</RA_OF_ASC_NODE><ARG_OF_PERICENTER>104.8908</ARG_OF_PERICENTER><MEAN_ANOMALY>333.6616</MEAN_ANOMALY></meanElements><tleParameters><EPHEMERIS_TYPE>0</EPHEMERIS_TYPE><CLASSIFICATION_TYPE>U</CLASSIFICATION_TYPE><NORAD_CAT_ID>37190</NORAD_CAT_ID><ELEMENT_SET_NO>999</ELEMENT_SET_NO><REV_AT_EPOCH>66777</REV_AT_EPOCH><BSTAR>.98769E-4</BSTAR><MEAN_MOTION_DOT>-.86E-6</MEAN_MOTION_DOT><MEAN_MOTION_DDOT>0</MEAN_MOTION_DDOT></tleParameters></data></segment></body></omm>
<omm id="CCSDS_OMM_VERS" version="2.0">
<header><CREATION_DATE/><ORIGINATOR/></header><body><segment><metadata><OBJECT_NAME>GLOBALSTAR M077</OBJECT_NAME><OBJECT_ID>2010-054D</OBJECT_ID><CENTER_NAME>EARTH</CENTER_NAME><REF_FRAME>TEME</REF_FRAME><TIME_SYSTEM>UTC</TIME_SYSTEM><MEAN_ELEMENT_THEORY>SGP4</MEAN_ELEMENT_THEORY></metadata><data><meanElements><EPOCH>2025-04-06T20:39:48.232224</EPOCH><MEAN_MOTION>12.62272950</MEAN_MOTION><ECCENTRICITY>.0000818</ECCENTRICITY><INCLINATION>52.0084</INCLINATION><RA_OF_ASC_NODE>313.2506</RA_OF_ASC_NODE><ARG_OF_PERICENTER>95.7846</ARG_OF_PERICENTER><MEAN_ANOMALY>276.0723</MEAN_ANOMALY></meanElements><tleParameters><EPHEMERIS_TYPE>0</EPHEMERIS_TYPE><CLASSIFICATION_TYPE>U</CLASSIFICATION_TYPE><NORAD_CAT_ID>37191</NORAD_CAT_ID><ELEMENT_SET_NO>999</ELEMENT_SET_NO><REV_AT_EPOCH>66814</REV_AT_EPOCH><BSTAR>.18407E-3</BSTAR><MEAN_MOTION_DOT>-.71E-6</MEAN_MOTION_DOT><MEAN_MOTION_DDOT>0</MEAN_MOTION_DDOT></tleParameters></data></segment></body></omm>

</ndm>
